G21 ; Set length units, millimeters
G90
G90 ; Set distance mode, absolute
M104 S220
M190 S60
M109 S220
G92 X0 Y0 Z0 ; Set axis position
G0 Z4
G0 X140 Y170 Z0
G1 X141
G1 X142
G1 X143
G1 X144
G1 X145
G1 X146
G1 X147
G1 X148
G1 X149
G1 X150
G1 X151
G1 X152
G1 X153
G1 X154
G1 X155
G1 X156
G1 X157
G1 X158
G1 X159
G1 X160
G1 X161
G1 X162
G1 X163
G1 X164
G1 X165
G1 X166
G1 X167
G1 X168
G1 X169
G1 X170
G1 X171
G1 X172
G1 X173
G1 X174
G1 X175
G1 X176
G1 X177
G1 X178
G1 X179
G1 X180
G1 X181
G1 X182
G1 X183
G1 X184
G1 X185
G1 X186
G1 X187
G1 X188
G1 X189
G1 X190
G1 X191
G1 X192
G1 X193
G1 X194
G1 X195
G1 X196
G1 X197
G1 X198
G1 X199
G1 X200
G1 X201
G1 X202
G1 X203
G1 X204
G1 X205
G1 X206
G1 X207
G1 X208
G1 X209
G1 X210
G1 X211
G1 X212
G1 X213
G1 X214
G1 X215
G1 X216
G1 X217
G1 X218
G1 X219
G1 X220
G0 Y171
G0 X140
G1 X141
G1 X142
G1 X143
G1 X144
G1 X145
G1 X146
G1 X147
G1 X148
G1 X149
G1 X150
G1 X151
G1 X152
G1 X153
G1 X154
G1 X155
G1 X156
G1 X157
G1 X158
G1 X159
G1 X160
G1 X161
G1 X162
G1 X163
G1 X164
G1 X165
G1 X166
G1 X167
G1 X168
G1 X169
G1 X170
G1 X171
G1 X172
G1 X173
G1 X174
G1 X175
G1 X176
G1 X177
G1 X178
G1 X179
G1 X180
G1 X181
G1 X182
G1 X183
G1 X184
G1 X185
G1 X186
G1 X187
G1 X188
G1 X189
G1 X190
G1 X191
G1 X192
G1 X193
G1 X194
G1 X195
G1 X196
G1 X197
G1 X198
G1 X199
G1 X200
G1 X201
G1 X202
G1 X203
G1 X204
G1 X205
G1 X206
G1 X207
G1 X208
G1 X209
G1 X210
G1 X211
G1 X212
G1 X213
G1 X214
G1 X215
G1 X216
G1 X217
G1 X218
G1 X219
G1 X220
G0 Y172
G0 X140
G1 X141
G1 X142
G1 X143
G1 X144
G1 X145
G1 X146
G1 X147
G1 X148
G1 X149
G1 X150
G1 X151
G1 X152
G1 X153
G1 X154
G1 X155
G1 X156
G1 X157
G1 X158
G1 X159
G1 X160
G1 X161
G1 X162
G1 X163
G1 X164
G1 X165
G1 X166
G1 X167
G1 X168
G1 X169
G1 X170
G1 X171
G1 X172
G1 X173
G1 X174
G1 X175
G1 X176
G1 X177
G1 X178
G1 X179
G1 X180
G1 X181
G1 X182
G1 X183
G1 X184
G1 X185
G1 X186
G1 X187
G1 X188
G1 X189
G1 X190
G1 X191
G1 X192
G1 X193
G1 X194
G1 X195
G1 X196
G1 X197
G1 X198
G1 X199
G1 X200
G1 X201
G1 X202
G1 X203
G1 X204
G1 X205
G1 X206
G1 X207
G1 X208
G1 X209
G1 X210
G1 X211
G1 X212
G1 X213
G1 X214
G1 X215
G1 X216
G1 X217
G1 X218
G1 X219
G1 X220
G0 Y173
G0 X140
G1 X141
G1 X142
G1 X143
G1 X144
G1 X145
G1 X146
G1 X147
G1 X148
G1 X149
G1 X150
G1 X151
G1 X152
G1 X153
G1 X154
G1 X155
G1 X156
G1 X157
G1 X158
G1 X159
G1 X160
G1 X161
G1 X162
G1 X163
G1 X164
G1 X165
G1 X166
G1 X167
G1 X168
G1 X169
G1 X170
G1 X171
G1 X172
G1 X173
G1 X174
G1 X175
G1 X176
G1 X177
G1 X178
G1 X179
G1 X180
G1 X181
G1 X182
G1 X183
G1 X184
G1 X185
G1 X186
G1 X187
G1 X188
G1 X189
G1 X190
G1 X191
G1 X192
G1 X193
G1 X194
G1 X195
G1 X196
G1 X197
G1 X198
G1 X199
G1 X200
G1 X201
G1 X202
G1 X203
G1 X204
G1 X205
G1 X206
G1 X207
G1 X208
G1 X209
G1 X210
G1 X211
G1 X212
G1 X213
G1 X214
G1 X215
G1 X216
G1 X217
G1 X218
G1 X219
G1 X220
G0 Y174
G0 X140
G1 X141
G1 X142
G1 X143
G1 X144
G1 X145
G1 X146
G1 X147
G1 X148
G1 X149
G1 X150
G1 X151
G1 X152
G1 X153
G1 X154
G1 X155
G1 X156
G1 X157
G1 X158
G1 X159
G1 X160
G1 X161
G1 X162
G1 X163
G1 X164
G1 X165
G1 X166
G1 X167
G1 X168
G1 X169
G1 X170
G1 X171
G1 X172
G1 X173
G1 X174
G1 X175
G1 X176
G1 X177
G1 X178
G1 X179
G1 X180
G1 X181
G1 X182
G1 X183
G1 X184
G1 X185
G1 X186
G1 X187
G1 X188
G1 X189
G1 X190
G1 X191
G1 X192
G1 X193
G1 X194
G1 X195
G1 X196
G1 X197
G1 X198
G1 X199
G1 X200
G1 X201
G1 X202
G1 X203
G1 X204
G1 X205
G1 X206
G1 X207
G1 X208
G1 X209
G1 X210
G1 X211
G1 X212
G1 X213
G1 X214
G1 X215
G1 X216
G1 X217
G1 X218
G1 X219
G1 X220
G0 Y175
G0 X140
G1 X141
G1 X142
G1 X143
G1 X144
G1 X145
G1 X146
G1 X147
G1 X148
G1 X149
G1 X150
G1 X151
G1 X152
G1 X153
G1 X154
G1 X155
G1 X156
G1 X157
G1 X158
G1 X159
G1 X160
G1 X161
G1 X162
G1 X163
G1 X164
G1 X165
G1 X166
G1 X167
G1 X168
G1 X169
G1 X170
G1 X171
G1 X172
G1 X173
G1 X174
G1 X175
G1 X176
G1 X177
G1 X178
G1 X179
G1 X180
G1 X181
G1 X182
G1 X183
G1 X184
G1 X185
G1 X186
G1 X187
G1 X188
G1 X189
G1 X190
G1 X191
G1 X192
G1 X193
G1 X194
G1 X195
G1 X196
G1 X197
G1 X198
G1 X199
G1 X200
G1 X201
G1 X202
G1 X203
G1 X204
G1 X205
G1 X206
G1 X207
G1 X208
G1 X209
G1 X210
G1 X211
G1 X212
G1 X213
G1 X214
G1 X215
G1 X216
G1 X217
G1 X218
G1 X219
G1 X220
G0 Y176
G0 X140
G1 X141
G1 X142
G1 X143
G1 X144
G1 X145
G1 X146
G1 X147
G1 X148
G1 X149
G1 X150
G1 X151
G1 X152
G1 X153
G1 X154
G1 X155
G1 X156
G1 X157
G1 X158
G1 X159
G1 X160
G1 X161
G1 X162
G1 X163
G1 X164
G1 X165
G1 X166
G1 X167
G1 X168
G1 X169
G1 X170
G1 X171
G1 X172
G1 X173
G1 X174
G1 X175
G1 X176
G1 X177
G1 X178
G1 X179
G1 X180
G1 X181
G1 X182
G1 X183
G1 X184
G1 X185
G1 X186
G1 X187
G1 X188
G1 X189
G1 X190
G1 X191
G1 X192
G1 X193
G1 X194
G1 X195
G1 X196
G1 X197
G1 X198
G1 X199
G1 X200
G1 X201
G1 X202
G1 X203
G1 X204
G1 X205
G1 X206
G1 X207
G1 X208
G1 X209
G1 X210
G1 X211
G1 X212
G1 X213
G1 X214
G1 X215
G1 X216
G1 X217
G1 X218
G1 X219
G1 X220
G0 Y177
G0 X140
G1 X141
G1 X142
G1 X143
G1 X144
G1 X145
G1 X146
G1 X147
G1 X148
G1 X149
G1 X150
G1 X151
G1 X152
G1 X153
G1 X154
G1 X155
G1 X156
G1 X157
G1 X158
G1 X159
G1 X160
G1 X161
G1 X162
G1 X163
G1 X164
G1 X165
G1 X166
G1 X167
G1 X168
G1 X169
G1 X170
G1 X171
G1 X172
G1 X173
G1 X174
G1 X175
G1 X176
G1 X177
G1 X178
G1 X179
G1 X180
G1 X181
G1 X182
G1 X183
G1 X184
G1 X185
G1 X186
G1 X187
G1 X188
G1 X189
G1 X190
G1 X191
G1 X192
G1 X193
G1 X194
G1 X195
G1 X196
G1 X197
G1 X198
G1 X199
G1 X200
G1 X201
G1 X202
G1 X203
G1 X204
G1 X205
G1 X206
G1 X207
G1 X208
G1 X209
G1 X210
G1 X211
G1 X212
G1 X213
G1 X214
G1 X215
G1 X216
G1 X217
G1 X218
G1 X219
G1 X220
G0 Y178
G0 X140
G1 X141
G1 X142
G1 X143
G1 X144
G1 X145
G1 X146
G1 X147
G1 X148
G1 X149
G1 X150
G1 X151
G1 X152
G1 X153
G1 X154
G1 X155
G1 X156
G1 X157
G1 X158
G1 X159
G1 X160
G1 X161
G1 X162
G1 X163
G1 X164
G1 X165
G1 X166
G1 X167
G1 X168
G1 X169
G1 X170
G1 X171
G1 X172
G1 X173
G1 X174
G1 X175
G1 X176
G1 X177
G1 X178
G1 X179
G1 X180
G1 X181
G1 X182
G1 X183
G1 X184
G1 X185
G1 X186
G1 X187
G1 X188
G1 X189
G1 X190
G1 X191
G1 X192
G1 X193
G1 X194
G1 X195
G1 X196
G1 X197
G1 X198
G1 X199
G1 X200
G1 X201
G1 X202
G1 X203
G1 X204
G1 X205
G1 X206
G1 X207
G1 X208
G1 X209
G1 X210
G1 X211
G1 X212
G1 X213
G1 X214
G1 X215
G1 X216
G1 X217
G1 X218
G1 X219
G1 X220
G0 Y179
G0 X140
G1 X141
G1 X142
G1 X143
G1 X144
G1 X145
G1 X146
G1 X147
G1 X148
G1 X149
G1 X150
G1 X151
G1 X152
G1 X153
G1 X154
G1 X155
G1 X156
G1 X157
G1 X158
G1 X159
G1 X160
G1 X161
G1 X162
G1 X163
G1 X164
G1 X165
G1 X166
G1 X167
G1 X168
G1 X169
G1 X170
G1 X171
G1 X172
G1 X173
G1 X174
G1 X175
G1 X176
G1 X177
G1 X178
G1 X179
G1 X180
G1 X181
G1 X182
G1 X183
G1 X184
G1 X185
G1 X186
G1 X187
G1 X188
G1 X189
G1 X190
G1 X191
G1 X192
G1 X193
G1 X194
G1 X195
G1 X196
G1 X197
G1 X198
G1 X199
G1 X200
G1 X201
G1 X202
G1 X203
G1 X204
G1 X205
G1 X206
G1 X207
G1 X208
G1 X209
G1 X210
G1 X211
G1 X212
G1 X213
G1 X214
G1 X215
G1 X216
G1 X217
G1 X218
G1 X219
G1 X220
G0 Y180
G0 X140
G0 Z1
G1 X141
G1 X142
G1 X143
G1 X144
G1 X145
G1 X146
G1 X147
G1 X148
G1 X149
G1 X150
G1 X151
G1 X152
G1 X153
G1 X154
G1 X155
G1 X156
G1 X157
G1 X158
G1 X159
G1 X160
G1 X161
G1 X162
G1 X163
G1 X164
G1 X165
G1 X166
G1 X167
G1 X168
G1 X169
G1 X170
G1 X171
G1 X172
G1 X173
G1 X174
G1 X175
G1 X176
G1 X177
G1 X178
G1 X179
G1 X180
G1 X181
G1 X182
G1 X183
G1 X184
G1 X185
G1 X186
G1 X187
G1 X188
G1 X189
G1 X190
G1 X191
G1 X192
G1 X193
G1 X194
G1 X195
G1 X196
G1 X197
G1 X198
G1 X199
G1 X200
G1 X201
G1 X202
G1 X203
G1 X204
G1 X205
G1 X206
G1 X207
G1 X208
G1 X209
G1 X210
G1 X211
G1 X212
G1 X213
G1 X214
G1 X215
G1 X216
G1 X217
G1 X218
G1 X219
G1 X220
G0 Y181
G0 X140
G1 X141
G1 X142
G1 X143
G1 X144
G1 X145
G1 X146
G1 X147
G1 X148
G1 X149
G1 X150
G1 X151
G1 X152
G1 X153
G1 X154
G1 X155
G1 X156
G1 X157
G1 X158
G1 X159
G1 X160
G1 X161
G1 X162
G1 X163
G1 X164
G1 X165
G1 X166
G1 X167
G1 X168
G1 X169
G1 X170
G1 X171
G1 X172
G1 X173
G1 X174
G1 X175
G1 X176
G1 X177
G1 X178
G1 X179
G1 X180
G1 X181
G1 X182
G1 X183
G1 X184
G1 X185
G1 X186
G1 X187
G1 X188
G1 X189
G1 X190
G1 X191
G1 X192
G1 X193
G1 X194
G1 X195
G1 X196
G1 X197
G1 X198
G1 X199
G1 X200
G1 X201
G1 X202
G1 X203
G1 X204
G1 X205
G1 X206
G1 X207
G1 X208
G1 X209
G1 X210
G1 X211
G1 X212
G1 X213
G1 X214
G1 X215
G1 X216
G1 X217
G1 X218
G1 X219
G1 X220
G0 Y182
G0 X140
G1 X141
G1 X142
G1 X143
G1 X144
G1 X145
G1 X146
G1 X147
G1 X148
G1 X149
G1 X150
G1 X151
G1 X152
G1 X153
G1 X154
G1 X155
G1 X156
G1 X157
G1 X158
G1 X159
G1 X160
G1 X161
G1 X162
G1 X163
G1 X164
G1 X165
G1 X166
G1 X167
G1 X168
G1 X169
G1 X170
G1 X171
G1 X172
G1 X173
G1 X174
G1 X175
G1 X176
G1 X177
G1 X178
G1 X179
G1 X180
G1 X181
G1 X182
G1 X183
G1 X184
G1 X185
G1 X186
G1 X187
G1 X188
G1 X189
G1 X190
G1 X191
G1 X192
G1 X193
G1 X194
G1 X195
G1 X196
G1 X197
G1 X198
G1 X199
G1 X200
G1 X201
G1 X202
G1 X203
G1 X204
G1 X205
G1 X206
G1 X207
G1 X208
G1 X209
G1 X210
G1 X211
G1 X212
G1 X213
G1 X214
G1 X215
G1 X216
G1 X217
G1 X218
G1 X219
G1 X220
G0 Y183
G0 X140
G1 X141
G1 X142
G1 X143
G1 X144
G1 X145
G1 X146
G1 X147
G1 X148
G1 X149
G1 X150
G1 X151
G1 X152
G1 X153
G1 X154
G1 X155
G1 X156
G1 X157
G1 X158
G1 X159
G1 X160
G1 X161
G1 X162
G1 X163
G1 X164
G1 X165
G1 X166
G1 X167
G1 X168
G1 X169
G1 X170
G1 X171
G1 X172
G1 X173
G1 X174
G1 X175
G1 X176
G1 X177
G1 X178
G1 X179
G1 X180
G1 X181
G1 X182
G1 X183
G1 X184
G1 X185
G1 X186
G1 X187
G1 X188
G1 X189
G1 X190
G1 X191
G1 X192
G1 X193
G1 X194
G1 X195
G1 X196
G1 X197
G1 X198
G1 X199
G1 X200
G1 X201
G1 X202
G1 X203
G1 X204
G1 X205
G1 X206
G1 X207
G1 X208
G1 X209
G1 X210
G1 X211
G1 X212
G1 X213
G1 X214
G1 X215
G1 X216
G1 X217
G1 X218
G1 X219
G1 X220
G0 Y184
G0 X140
G1 X141
G1 X142
G1 X143
G1 X144
G1 X145
G1 X146
G1 X147
G1 X148
G1 X149
G1 X150
G1 X151
G1 X152
G1 X153
G1 X154
G1 X155
G1 X156
G1 X157
G1 X158
G1 X159
G1 X160
G1 X161
G1 X162
G1 X163
G1 X164
G1 X165
G1 X166
G1 X167
G1 X168
G1 X169
G1 X170
G1 X171
G1 X172
G1 X173
G1 X174
G1 X175
G1 X176
G1 X177
G1 X178
G1 X179
G1 X180
G1 X181
G1 X182
G1 X183
G1 X184
G1 X185
G1 X186
G1 X187
G1 X188
G1 X189
G1 X190
G1 X191
G1 X192
G1 X193
G1 X194
G1 X195
G1 X196
G1 X197
G1 X198
G1 X199
G1 X200
G1 X201
G1 X202
G1 X203
G1 X204
G1 X205
G1 X206
G1 X207
G1 X208
G1 X209
G1 X210
G1 X211
G1 X212
G1 X213
G1 X214
G1 X215
G1 X216
G1 X217
G1 X218
G1 X219
G1 X220
G0 Y185
G0 X140
G1 X141
G1 X142
G1 X143
G1 X144
G1 X145
G1 X146
G1 X147
G1 X148
G1 X149
G1 X150
G1 X151
G1 X152
G1 X153
G1 X154
G1 X155
G1 X156
G1 X157
G1 X158
G1 X159
G1 X160
G1 X161
G1 X162
G1 X163
G1 X164
G1 X165
G1 X166
G1 X167
G1 X168
G1 X169
G1 X170
G1 X171
G1 X172
G1 X173
G1 X174
G1 X175
G1 X176
G1 X177
G1 X178
G1 X179
G1 X180
G1 X181
G1 X182
G1 X183
G1 X184
G1 X185
G1 X186
G1 X187
G1 X188
G1 X189
G1 X190
G1 X191
G1 X192
G1 X193
G1 X194
G1 X195
G1 X196
G1 X197
G1 X198
G1 X199
G1 X200
G1 X201
G1 X202
G1 X203
G1 X204
G1 X205
G1 X206
G1 X207
G1 X208
G1 X209
G1 X210
G1 X211
G1 X212
G1 X213
G1 X214
G1 X215
G1 X216
G1 X217
G1 X218
G1 X219
G1 X220
G0 Y186
G0 X140
G1 X141
G1 X142
G1 X143
G1 X144
G1 X145
G1 X146
G1 X147
G1 X148
G1 X149
G1 X150
G1 X151
G1 X152
G1 X153
G1 X154
G1 X155
G1 X156
G1 X157
G1 X158
G1 X159
G1 X160
G1 X161
G1 X162
G1 X163
G1 X164
G1 X165
G1 X166
G1 X167
G1 X168
G1 X169
G1 X170
G1 X171
G1 X172
G1 X173
G1 X174
G1 X175
G1 X176
G1 X177
G1 X178
G1 X179
G1 X180
G1 X181
G1 X182
G1 X183
G1 X184
G1 X185
G1 X186
G1 X187
G1 X188
G1 X189
G1 X190
G1 X191
G1 X192
G1 X193
G1 X194
G1 X195
G1 X196
G1 X197
G1 X198
G1 X199
G1 X200
G1 X201
G1 X202
G1 X203
G1 X204
G1 X205
G1 X206
G1 X207
G1 X208
G1 X209
G1 X210
G1 X211
G1 X212
G1 X213
G1 X214
G1 X215
G1 X216
G1 X217
G1 X218
G1 X219
G1 X220
G0 Y187
G0 X140
G1 X141
G1 X142
G1 X143
G1 X144
G1 X145
G1 X146
G1 X147
G1 X148
G1 X149
G1 X150
G1 X151
G1 X152
G1 X153
G1 X154
G1 X155
G1 X156
G1 X157
G1 X158
G1 X159
G1 X160
G1 X161
G1 X162
G1 X163
G1 X164
G1 X165
G1 X166
G1 X167
G1 X168
G1 X169
G1 X170
G1 X171
G1 X172
G1 X173
G1 X174
G1 X175
G1 X176
G1 X177
G1 X178
G1 X179
G1 X180
G1 X181
G1 X182
G1 X183
G1 X184
G1 X185
G1 X186
G1 X187
G1 X188
G1 X189
G1 X190
G1 X191
G1 X192
G1 X193
G1 X194
G1 X195
G1 X196
G1 X197
G1 X198
G1 X199
G1 X200
G1 X201
G1 X202
G1 X203
G1 X204
G1 X205
G1 X206
G1 X207
G1 X208
G1 X209
G1 X210
G1 X211
G1 X212
G1 X213
G1 X214
G1 X215
G1 X216
G1 X217
G1 X218
G1 X219
G1 X220
G0 Y188
G0 X140
G1 X141
G1 X142
G1 X143
G1 X144
G1 X145
G1 X146
G1 X147
G1 X148
G1 X149
G1 X150
G1 X151
G1 X152
G1 X153
G1 X154
G1 X155
G1 X156
G1 X157
G1 X158
G1 X159
G1 X160
G1 X161
G1 X162
G1 X163
G1 X164
G1 X165
G1 X166
G1 X167
G1 X168
G1 X169
G1 X170
G1 X171
G1 X172
G1 X173
G1 X174
G1 X175
G1 X176
G1 X177
G1 X178
G1 X179
G1 X180
G1 X181
G1 X182
G1 X183
G1 X184
G1 X185
G1 X186
G1 X187
G1 X188
G1 X189
G1 X190
G1 X191
G1 X192
G1 X193
G1 X194
G1 X195
G1 X196
G1 X197
G1 X198
G1 X199
G1 X200
G1 X201
G1 X202
G1 X203
G1 X204
G1 X205
G1 X206
G1 X207
G1 X208
G1 X209
G1 X210
G1 X211
G1 X212
G1 X213
G1 X214
G1 X215
G1 X216
G1 X217
G1 X218
G1 X219
G1 X220
G0 Y189
G0 X140
G1 X141
G1 X142
G1 X143
G1 X144
G1 X145
G1 X146
G1 X147
G1 X148
G1 X149
G1 X150
G1 X151
G1 X152
G1 X153
G1 X154
G1 X155
G1 X156
G1 X157
G1 X158
G1 X159
G1 X160
G1 X161
G1 X162
G1 X163
G1 X164
G1 X165
G1 X166
G1 X167
G1 X168
G1 X169
G1 X170
G1 X171
G1 X172
G1 X173
G1 X174
G1 X175
G1 X176
G1 X177
G1 X178
G1 X179
G1 X180
G1 X181
G1 X182
G1 X183
G1 X184
G1 X185
G1 X186
G1 X187
G1 X188
G1 X189
G1 X190
G1 X191
G1 X192
G1 X193
G1 X194
G1 X195
G1 X196
G1 X197
G1 X198
G1 X199
G1 X200
G1 X201
G1 X202
G1 X203
G1 X204
G1 X205
G1 X206
G1 X207
G1 X208
G1 X209
G1 X210
G1 X211
G1 X212
G1 X213
G1 X214
G1 X215
G1 X216
G1 X217
G1 X218
G1 X219
G1 X220
G0 Y190
G0 X140
G0 Z2
